OBJECT_NAME,OBJECT_ID,EPOCH,MEAN_MOTION,ECCENTRICITY,INCLINATION,RA_OF_ASC_NODE,ARG_OF_PERICENTER,MEAN_ANOMALY,EPHEMERIS_TYPE,CLASSIFICATION_TYPE,NORAD_CAT_ID,ELEMENT_SET_NO,REV_AT_EPOCH,BSTAR,MEAN_MOTION_DOT,MEAN_MOTION_DDOT
ONEWEB-0720,2023-029AR,2026-06-07T02:46:36.425568,13.19724398,.0001519,87.9159,306.9843,97.5850,262.5455,0,U,55835,999,15751,.10684E-3,.56E-6,0
ONEWEB-0537,2023-043A,2026-06-07T11:12:27.753696,13.16594026,.0002257,87.9103,230.7017,102.0617,258.0767,0,U,56046,999,15768,-.10744E-3,-.28E-6,0
ONEWEB-0538,2023-043B,2026-06-07T11:03:20.687040,13.16594401,.0002038,87.9099,230.7053,106.5627,253.5727,0,U,56047,999,15769,.70821E-5,.16E-6,0
ONEWEB-0546,2023-043C,2026-06-07T10:45:06.461280,13.16595148,.0002755,87.9105,230.7074,103.0457,257.0981,0,U,56048,999,15768,.12422E-3,.6E-6,0
ONEWEB-0547,2023-043D,2026-06-07T11:35:55.948416,13.21825240,.000185,87.9260,245.9043,103.2645,256.8695,0,U,56049,999,15694,.90092E-4,.5E-6,0
ONEWEB-0548,2023-043E,2026-06-07T11:20:26.172096,13.16595887,.0002189,87.9098,230.6992,86.8432,273.2950,0,U,56050,999,15768,.17625E-5,.14E-6,0
ONEWEB-0549,2023-043F,2026-06-07T11:27:27.595008,13.21825570,.0001937,87.9255,245.9125,110.8125,249.3217,0,U,56051,999,15694,.15044E-3,.75E-6,0
ONEWEB-0550,2023-043G,2026-06-07T05:41:05.326944,13.21825914,.0002,87.9256,245.9577,93.7411,266.3952,0,U,56052,999,15691,.53063E-4,.35E-6,0
ONEWEB-0551,2023-043H,2026-06-07T04:36:05.090112,13.15548126,.0001702,87.8998,261.2179,110.1278,250.0035,0,U,56053,999,15508,.1592E-3,.73E-6,0
ONEWEB-0552,2023-043J,2026-06-07T05:33:48.267360,13.21828007,.0001785,87.9252,245.9645,98.2355,261.8981,0,U,56054,999,15691,.16525E-3,.81E-6,0
ONEWEB-0553,2023-043K,2026-06-07T10:54:13.250592,13.16593879,.0002449,87.9099,230.7070,98.5916,261.5493,0,U,56055,999,15769,-.6493E-4,-.12E-6,0
ONEWEB-0554,2023-043L,2026-06-07T10:35:55.904064,13.16620129,.0001648,87.9073,230.7127,102.9257,257.2058,0,U,56056,999,15767,.71891E-2,.2763E-4,0
ONEWEB-0555,2023-043M,2026-06-07T11:30:41.416128,13.16596009,.0002676,87.9104,230.6988,101.4822,258.6610,0,U,56057,999,15768,.22847E-3,.1E-5,0
ONEWEB-0557,2023-043N,2026-06-07T11:51:12.773376,13.16594688,.0003099,87.9108,230.7064,80.8175,279.3306,0,U,56058,999,15768,.43494E-3,.179E-5,0
ONEWEB-0558,2023-043P,2026-06-07T12:40:07.279392,13.21828086,.0002021,87.9254,245.9002,109.4481,250.6872,0,U,56059,999,15696,-.23852E-5,.12E-6,0
ONEWEB-0559,2023-043Q,2026-06-07T12:23:09.400128,13.21827942,.0001836,87.9268,245.8973,101.7871,258.3469,0,U,56060,999,15697,.35041E-3,.158E-5,0
ONEWEB-0566,2023-043R,2026-06-07T12:13:29.530848,13.21826279,.0001757,87.9261,245.8972,106.2844,253.8483,0,U,56061,999,15695,.31047E-3,.141E-5,0
ONEWEB-0568,2023-043S,2026-06-07T10:26:51.961632,13.16594223,.0002313,87.9105,230.7074,99.9861,260.1531,0,U,56062,999,15769,.45175E-4,.3E-6,0
ONEWEB-0574,2023-043T,2026-06-07T12:03:47.219904,13.21826704,.0002163,87.9266,245.9004,95.4045,264.7335,0,U,56063,999,15699,.5319E-5,.15E-6,0
ONEWEB-0575,2023-043U,2026-06-07T10:17:44.761920,13.16593949,.000244,87.9111,230.7043,94.9254,265.2155,0,U,56064,999,15768,.461E-3,.189E-5,0
ONEWEB-0576,2023-043V,2026-06-07T11:39:48.721248,13.16594115,.0002219,87.9102,230.7014,94.3519,265.7866,0,U,56065,999,15768,.67689E-4,.39E-6,0
ONEWEB-0577,2023-043W,2026-06-07T11:48:56.269152,13.16592901,.0002509,87.9105,230.6977,81.4121,278.7294,0,U,56066,999,15771,.34351E-3,.144E-5,0
ONEWEB-0578,2023-043X,2026-06-07T11:44:24.260352,13.21829389,.0002226,87.9260,245.9015,101.1755,258.9630,0,U,56067,999,15695,-.20103E-2,-.817E-5,0
ONEWEB-0579,2023-043Y,2026-06-07T11:32:19.430880,13.21825828,.0001729,87.9267,245.9000,97.3215,262.8115,0,U,56068,999,15696,.24887E-4,.23E-6,0
ONEWEB-0581,2023-043Z,2026-06-07T04:40:17.835168,13.16596229,.0002313,87.9107,230.7680,85.9409,274.1987,0,U,56069,999,15764,.28459E-3,.122E-5,0
ONEWEB-0609,2023-043AA,2026-06-07T12:31:49.452960,13.15548934,.0001968,87.9001,261.1373,102.8292,257.3058,0,U,56070,999,15516,.1703E-3,.77E-6,0
ONEWEB-0613,2023-043AB,2026-06-07T12:28:23.831328,13.15550124,.000163,87.8999,261.1501,102.9161,257.2152,0,U,56071,999,15516,.18636E-3,.83E-6,0
ONEWEB-0630,2023-043AC,2026-06-07T12:21:32.190624,13.15550464,.0001693,87.9005,261.1221,102.4352,257.6967,0,U,56072,999,15515,.28328E-3,.119E-5,0
ONEWEB-0632,2023-043AD,2026-06-07T12:14:43.039104,13.15548352,.0001969,87.9000,261.1412,95.2743,264.8612,0,U,56073,999,15515,.43109E-3,.175E-5,0
ONEWEB-0633,2023-043AE,2026-06-07T01:08:25.628640,13.15548405,.0001648,87.9006,261.2081,110.0720,250.0588,0,U,56074,999,15507,.44355E-3,.18E-5,0
ONEWEB-0634,2023-043AF,2026-06-07T00:47:55.089600,13.15548705,.0002207,87.8999,261.2522,107.8181,252.3190,0,U,56075,999,15506,.33667E-3,.14E-5,0
