ONEWEB-0720             
1 55835U 23029AR  26158.11569937  .00000056  00000+0  10684-3 0  9997
2 55835  87.9159 306.9843 0001519  97.5850 262.5455 13.19724398157515
ONEWEB-0537             
1 56046U 23043A   26158.46698789 -.00000028  00000+0 -10744-3 0  9992
2 56046  87.9103 230.7017 0002257 102.0617 258.0767 13.16594026157683
ONEWEB-0538             
1 56047U 23043B   26158.46065610  .00000016  00000+0  70821-5 0  9993
2 56047  87.9099 230.7053 0002038 106.5627 253.5727 13.16594401157699
ONEWEB-0546             
1 56048U 23043C   26158.44799145  .00000060  00000+0  12422-3 0  9999
2 56048  87.9105 230.7074 0002755 103.0457 257.0981 13.16595148157689
ONEWEB-0547             
1 56049U 23043D   26158.48328644  .00000050  00000+0  90092-4 0  9995
2 56049  87.9260 245.9043 0001850 103.2645 256.8695 13.21825240156944
ONEWEB-0548             
1 56050U 23043E   26158.47252514  .00000014  00000+0  17625-5 0  9990
2 56050  87.9098 230.6992 0002189  86.8432 273.2950 13.16595887157689
ONEWEB-0549             
1 56051U 23043F   26158.47740272  .00000075  00000+0  15044-3 0  9992
2 56051  87.9255 245.9125 0001937 110.8125 249.3217 13.21825570156948
ONEWEB-0550             
1 56052U 23043G   26158.23686721  .00000035  00000+0  53063-4 0  9995
2 56052  87.9256 245.9577 0002000  93.7411 266.3952 13.21825914156914
ONEWEB-0551             
1 56053U 23043H   26158.19172558  .00000073  00000+0  15920-3 0  9990
2 56053  87.8998 261.2179 0001702 110.1278 250.0035 13.15548126155088
ONEWEB-0552             
1 56054U 23043J   26158.23180865  .00000081  00000+0  16525-3 0  9997
2 56054  87.9252 245.9645 0001785  98.2355 261.8981 13.21828007156912
ONEWEB-0553             
1 56055U 23043K   26158.45432003 -.00000012  00000+0 -64930-4 0  9996
2 56055  87.9099 230.7070 0002449  98.5916 261.5493 13.16593879157691
ONEWEB-0554             
1 56056U 23043L   26158.44161926  .00002763  00000+0  71891-2 0  9994
2 56056  87.9073 230.7127 0001648 102.9257 257.2058 13.16620129157671
ONEWEB-0555             
1 56057U 23043M   26158.47964602  .00000100  00000+0  22847-3 0  9991
2 56057  87.9104 230.6988 0002676 101.4822 258.6610 13.16596009157684
ONEWEB-0557             
1 56058U 23043N   26158.49389784  .00000179  00000+0  43494-3 0  9993
2 56058  87.9108 230.7064 0003099  80.8175 279.3306 13.16594688157689
ONEWEB-0558             
1 56059U 23043P   26158.52786203  .00000012  00000+0 -23852-5 0  9990
2 56059  87.9254 245.9002 0002021 109.4481 250.6872 13.21828086156962
ONEWEB-0559             
1 56060U 23043Q   26158.51608102  .00000158  00000+0  35041-3 0  9993
2 56060  87.9268 245.8973 0001836 101.7871 258.3469 13.21827942156974
ONEWEB-0566             
1 56061U 23043R   26158.50936957  .00000141  00000+0  31047-3 0  9999
2 56061  87.9261 245.8972 0001757 106.2844 253.8483 13.21826279156955
ONEWEB-0568             
1 56062U 23043S   26158.43532363  .00000030  00000+0  45175-4 0  9990
2 56062  87.9105 230.7074 0002313  99.9861 260.1531 13.16594223157697
ONEWEB-0574             
1 56063U 23043T   26158.50262986  .00000015  00000+0  53190-5 0  9990
2 56063  87.9266 245.9004 0002163  95.4045 264.7335 13.21826704156997
ONEWEB-0575             
1 56064U 23043U   26158.42899030  .00000189  00000+0  46100-3 0  9991
2 56064  87.9111 230.7043 0002440  94.9254 265.2155 13.16593949157685
ONEWEB-0576             
1 56065U 23043V   26158.48598057  .00000039  00000+0  67689-4 0  9993
2 56065  87.9102 230.7014 0002219  94.3519 265.7866 13.16594115157686
ONEWEB-0577             
1 56066U 23043W   26158.49231793  .00000144  00000+0  34351-3 0  9992
2 56066  87.9105 230.6977 0002509  81.4121 278.7294 13.16592901157719
ONEWEB-0578             
1 56067U 23043X   26158.48916968 -.00000817  00000+0 -20103-2 0  9994
2 56067  87.9260 245.9015 0002226 101.1755 258.9630 13.21829389156951
ONEWEB-0579             
1 56068U 23043Y   26158.48078045  .00000023  00000+0  24887-4 0  9992
2 56068  87.9267 245.9000 0001729  97.3215 262.8115 13.21825828156964
ONEWEB-0581             
1 56069U 23043Z   26158.19465087  .00000122  00000+0  28459-3 0  9995
2 56069  87.9107 230.7680 0002313  85.9409 274.1987 13.16596229157645
ONEWEB-0609             
1 56070U 23043AA  26158.52210015  .00000077  00000+0  17030-3 0  9995
2 56070  87.9001 261.1373 0001968 102.8292 257.3058 13.15548934155167
ONEWEB-0613             
1 56071U 23043AB  26158.51972027  .00000083  00000+0  18636-3 0  9993
2 56071  87.8999 261.1501 0001630 102.9161 257.2152 13.15550124155166
ONEWEB-0630             
1 56072U 23043AC  26158.51495591  .00000119  00000+0  28328-3 0  9999
2 56072  87.9005 261.1221 0001693 102.4352 257.6967 13.15550464155155
ONEWEB-0632             
1 56073U 23043AD  26158.51022036  .00000175  00000+0  43109-3 0  9996
2 56073  87.9000 261.1412 0001969  95.2743 264.8612 13.15548352155152
ONEWEB-0633             
1 56074U 23043AE  26158.04751885  .00000180  00000+0  44355-3 0  9996
2 56074  87.9006 261.2081 0001648 110.0720 250.0588 13.15548405155076
ONEWEB-0634             
1 56075U 23043AF  26158.03327650  .00000140  00000+0  33667-3 0  9995
2 56075  87.8999 261.2522 0002207 107.8181 252.3190 13.15548705155060
